[{"OBJECT_NAME":"STARLINK-31070","OBJECT_ID":"2023-203X","EPOCH":"2026-03-09T00:20:18.343680","MEAN_MOTION":15.27571827,"ECCENTRICITY":9.068e-5,"INCLINATION":42.9993,"RA_OF_ASC_NODE":71.2821,"ARG_OF_PERICENTER":192.3964,"MEAN_ANOMALY":167.6865,"EPHEMERIS_TYPE":0,"CLASSIFICATION_TYPE":"U","NORAD_CAT_ID":58639,"ELEMENT_SET_NO":999,"REV_AT_EPOCH":12345,"BSTAR":-2.1215314e-5,"MEAN_MOTION_DOT":-8.45e-6,"MEAN_MOTION_DDOT":0},{"OBJECT_NAME":"CZ-4B DEB","OBJECT_ID":"2006-015E","EPOCH":"2026-03-09T20:34:53.082912","MEAN_MOTION":15.19885806,"ECCENTRICITY":0.00461993,"INCLINATION":98.0565,"RA_OF_ASC_NODE":201.7753,"ARG_OF_PERICENTER":62.4887,"MEAN_ANOMALY":298.1031,"EPHEMERIS_TYPE":0,"CLASSIFICATION_TYPE":"U","NORAD_CAT_ID":29538,"ELEMENT_SET_NO":999,"REV_AT_EPOCH":5389,"BSTAR":0.0022587151,"MEAN_MOTION_DOT":0.00050103,"MEAN_MOTION_DDOT":0}]
